SAUDISAT 1A             
1 26545U 00057A   13240.82395226  .00000455  00000-0  74254-4 0  5627
2 26545  64.5557  67.4921 0050728 241.8345 212.7209 14.82274856698344
UNISAT                  
1 26547U 00057C   13240.96233631  .00001059  00000-0  13740-3 0  5774
2 26547  64.5542  35.4636 0056015 243.5973 262.0275 14.85257458699017
SAUDISAT 1B             
1 26549U 00057E   13241.57918685  .00000615  00000-0  76753-4 0  6494
2 26549  64.5559  90.5397 0055863 242.5933 116.9977 14.81042077697949
MOZHAYETS               
1 27560U 02054B   13241.37251959  .00000443  00000-0  10925-3 0  8623
2 27560  98.0133  31.0810 0043500 109.4829 251.1101 14.56064162569909
SAUDISAT 1C             
1 27607U 02058C   13240.48457838  .00000461  00000-0  91896-4 0  1534
2 27607  64.5578  44.0234 0037174 137.8361 259.5878 14.73050407574367
UNISAT 2                
1 27608U 02058D   13240.80079953  .00000267  00000-0  58691-4 0  1674
2 27608  64.5587 347.1937 0018257 127.6207  15.6613 14.75816120575578
SAUDISAT 2              
1 28371U 04025F   13241.37423072  .00000195  00000-0  56933-4 0  2517
2 28371  97.9496 229.9122 0025327 327.0478  32.9147 14.53449490486179
UNISAT 3                
1 28373U 04025H   13240.50602814  .00000215  00000-0  72757-4 0  6100
2 28373  98.1604 200.5626 0071607 110.9018   5.2070 14.44181436483369
SSETI EXPRESS (XO-53)   
1 28894U 05043E   13241.16171274  .00000201  00000-0  50458-4 0  7754
2 28894  97.8531  90.4310 0016949 211.3251 296.4720 14.60377413417667
SAUDISAT 3              
1 31118U 07012B   13241.35121149  .00000177  00000-0  38552-4 0  8611
2 31118  97.8122 286.2419 0016391  34.9484 325.2796 14.68441991341288
